[{"OBJECT_NAME":"QIANFAN-35","OBJECT_ID":"2024-185S","EPOCH":"2026-03-09T22:26:33.581760","MEAN_MOTION":14.28128705,"ECCENTRICITY":0.00069627,"INCLINATION":88.9749,"RA_OF_ASC_NODE":66.6226,"ARG_OF_PERICENTER":20.1226,"MEAN_ANOMALY":340.0242,"EPHEMERIS_TYPE":0,"CLASSIFICATION_TYPE":"U","NORAD_CAT_ID":61568,"ELEMENT_SET_NO":999,"REV_AT_EPOCH":8262,"BSTAR":0.00043408229,"MEAN_MOTION_DOT":1.093e-5,"MEAN_MOTION_DDOT":0},{"OBJECT_NAME":"DMSP 5D-2 F13 DEB","OBJECT_ID":"1995-015BC","EPOCH":"2026-03-09T00:47:28.737600","MEAN_MOTION":14.31767627,"ECCENTRICITY":0.00115027,"INCLINATION":98.6429,"RA_OF_ASC_NODE":95.6653,"ARG_OF_PERICENTER":261.0948,"MEAN_ANOMALY":98.8933,"EPHEMERIS_TYPE":0,"CLASSIFICATION_TYPE":"U","NORAD_CAT_ID":40450,"ELEMENT_SET_NO":999,"REV_AT_EPOCH":57213,"BSTAR":0.0011311779,"MEAN_MOTION_DOT":2.98e-5,"MEAN_MOTION_DDOT":0}]
